start=new Date('2022-12-04T00:00:00.000Z').valueOf();
sats=[{"CENTER_NAME":"EARTH","SEMIMAJOR_AXIS":"6917.885","RA_OF_ASC_NODE":"95.5086","INCLINATION":"53.2183","TIME_SYSTEM":"UTC","OBJECT_ID":"2022-053Z","MEAN_ELEMENT_THEORY":"SGP4","MEAN_MOTION_DDOT":"0.0000000000000","EPOCH":"2022-12-03T14:59:39.443712","OBJECT_TYPE":"PAYLOAD","MEAN_ANOMALY":"314.8914","ELEMENT_SET_NO":"999","EPHEMERIS_TYPE":"0","ARG_OF_PERICENTER":"45.2246","GP_ID":"219480976","TLE_LINE1":"1 52679U 22053Z   22337.62476208  .00000362  00000-0  40849-4 0  9993","NORAD_CAT_ID":"52679","SITE":"AFETR","RCS_SIZE":"LARGE","CLASSIFICATION_TYPE":"U","COUNTRY_CODE":"US","REV_AT_EPOCH":"3117","APOAPSIS":"541.182","BSTAR":"0.00004084900000","TLE_LINE2":"2 52679  53.2183  95.5086 0002069  45.2246 314.8914 15.08838393 31176","FILE":"3680595","LAUNCH_DATE":"2022-05-18","ECCENTRICITY":"0.00020690","DECAY_DATE":null,"MEAN_MOTION_DOT":"0.00000362","PERIAPSIS":"538.319","REF_FRAME":"TEME","PERIOD":"95.438","MEAN_MOTION":"15.08838393","OBJECT_NAME":"STARLINK-4031"},{"MEAN_MOTION_DOT":"0.00000297","PERIAPSIS":"538.222","PERIOD":"95.438","REF_FRAME":"TEME","MEAN_MOTION":"15.08828610","OBJECT_NAME":"STARLINK-3774","GP_ID":"219481222","TLE_LINE1":"1 52680U 22053AA  22337.70573294  .00000297  00000-0  36792-4 0  9996","SITE":"AFETR","NORAD_CAT_ID":"52680","COUNTRY_CODE":"US","CLASSIFICATION_TYPE":"U","RCS_SIZE":"LARGE","REV_AT_EPOCH":"3120","APOAPSIS":"541.339","DECAY_DATE":null,"ECCENTRICITY":"0.00022530","FILE":"3680595","TLE_LINE2":"2 52680  53.2166  95.1352 0002253  46.5074 313.6105 15.08828610 31203","BSTAR":"0.00003679200000","LAUNCH_DATE":"2022-05-18","MEAN_ANOMALY":"313.6105","ELEMENT_SET_NO":"999","EPHEMERIS_TYPE":"0","ARG_OF_PERICENTER":"46.5074","CENTER_NAME":"EARTH","SEMIMAJOR_AXIS":"6917.915","RA_OF_ASC_NODE":"95.1352","OBJECT_ID":"2022-053AA","TIME_SYSTEM":"UTC","INCLINATION":"53.2166","MEAN_ELEMENT_THEORY":"SGP4","EPOCH":"2022-12-03T16:56:15.326016","OBJECT_TYPE":"PAYLOAD","MEAN_MOTION_DDOT":"0.0000000000000"},{"REF_FRAME":"TEME","PERIOD":"95.438","PERIAPSIS":"537.878","MEAN_MOTION_DOT":"-0.00000011","OBJECT_NAME":"STARLINK-4068","MEAN_MOTION":"15.08826709","NORAD_CAT_ID":"52681","SITE":"AFETR","TLE_LINE1":"1 52681U 22053AB  22337.68733122 -.00000011  00000-0  17424-4 0  9998","GP_ID":"219480474","FILE":"3680595","TLE_LINE2":"2 52681  53.2183  95.2177 0002758  46.3492 313.7728 15.08826709 31187","BSTAR":"0.00001742400000","LAUNCH_DATE":"2022-05-18","ECCENTRICITY":"0.00027580","DECAY_DATE":null,"APOAPSIS":"541.694","REV_AT_EPOCH":"3118","CLASSIFICATION_TYPE":"U","RCS_SIZE":"LARGE","COUNTRY_CODE":"US","ELEMENT_SET_NO":"999","MEAN_ANOMALY":"313.7728","EPHEMERIS_TYPE":"0","ARG_OF_PERICENTER":"46.3492","INCLINATION":"53.2183","OBJECT_ID":"2022-053AB","TIME_SYSTEM":"UTC","RA_OF_ASC_NODE":"95.2177","CENTER_NAME":"EARTH","SEMIMAJOR_AXIS":"6917.921","MEAN_MOTION_DDOT":"0.0000000000000","EPOCH":"2022-12-03T16:29:45.417408","OBJECT_TYPE":"PAYLOAD","MEAN_ELEMENT_THEORY":"SGP4"},{"OBJECT_NAME":"STARLINK-4017","MEAN_MOTION":"15.08833198","PERIOD":"95.438","REF_FRAME":"TEME","PERIAPSIS":"537.963","MEAN_MOTION_DOT":"-0.00000085","DECAY_DATE":null,"ECCENTRICITY":"0.00026060","FILE":"3680595","TLE_LINE2":"2 52682  53.2188  95.1681 0002606  46.8602 313.2608 15.08833198 31207","LAUNCH_DATE":"2022-05-18","BSTAR":"0.00001277400000","APOAPSIS":"541.569","REV_AT_EPOCH":"3120","COUNTRY_CODE":"US","CLASSIFICATION_TYPE":"U","RCS_SIZE":"LARGE","SITE":"AFETR","NORAD_CAT_ID":"52682","TLE_LINE1":"1 52682U 22053AC  22337.69836769 -.00000085  00000-0  12774-4 0  9995","GP_ID":"219480221","ARG_OF_PERICENTER":"46.8602","EPHEMERIS_TYPE":"0","ELEMENT_SET_NO":"999","MEAN_ANOMALY":"313.2608","OBJECT_TYPE":"PAYLOAD","EPOCH":"2022-12-03T16:45:38.968416","MEAN_MOTION_DDOT":"0.0000000000000","MEAN_ELEMENT_THEORY":"SGP4","TIME_SYSTEM":"UTC","OBJECT_ID":"2022-053AC","INCLINATION":"53.2188","RA_OF_ASC_NODE":"95.1681","SEMIMAJOR_AXIS":"6917.901","CENTER_NAME":"EARTH"},{"PERIOD":"95.438","REF_FRAME":"TEME","PERIAPSIS":"538.458","MEAN_MOTION_DOT":"0.00001317","OBJECT_NAME":"STARLINK-4039","MEAN_MOTION":"15.08837727","SITE":"AFETR","NORAD_CAT_ID":"52683","TLE_LINE1":"1 52683U 22053AD  22337.67997249  .00001317  00000-0  10086-3 0  9996","GP_ID":"219481476","DECAY_DATE":null,"ECCENTRICITY":"0.00018710","TLE_LINE2":"2 52683  53.2185  95.2527 0001871  46.5923 313.5225 15.08837727 31188","FILE":"3680595","BSTAR":"0.00010086000000","LAUNCH_DATE":"2022-05-18","REV_AT_EPOCH":"3118","APOAPSIS":"541.047","COUNTRY_CODE":"US","CLASSIFICATION_TYPE":"U","RCS_SIZE":"LARGE","ELEMENT_SET_NO":"999","MEAN_ANOMALY":"313.5225","EPHEMERIS_TYPE":"0","ARG_OF_PERICENTER":"46.5923","OBJECT_ID":"2022-053AD","TIME_SYSTEM":"UTC","INCLINATION":"53.2185","RA_OF_ASC_NODE":"95.2527","CENTER_NAME":"EARTH","SEMIMAJOR_AXIS":"6917.887","EPOCH":"2022-12-03T16:19:09.623136","OBJECT_TYPE":"PAYLOAD","MEAN_MOTION_DDOT":"0.0000000000000","MEAN_ELEMENT_THEORY":"SGP4"},{"SITE":"AFETR","NORAD_CAT_ID":"52684","TLE_LINE1":"1 52684U 22053AE  22337.62844752  .00000048  00000-0  21122-4 0  9996","GP_ID":"219481721","DECAY_DATE":null,"ECCENTRICITY":"0.00026430","FILE":"3680595","TLE_LINE2":"2 52684  53.2191  95.4873 0002643  34.0875 326.0287 15.08832044 31171","BSTAR":"0.00002112200000","LAUNCH_DATE":"2022-05-18","REV_AT_EPOCH":"3117","APOAPSIS":"541.598","COUNTRY_CODE":"US","CLASSIFICATION_TYPE":"U","RCS_SIZE":"LARGE","PERIOD":"95.438","REF_FRAME":"TEME","PERIAPSIS":"537.941","MEAN_MOTION_DOT":"0.00000048","OBJECT_NAME":"STARLINK-4014","MEAN_MOTION":"15.08832044","OBJECT_ID":"2022-053AE","TIME_SYSTEM":"UTC","INCLINATION":"53.2191","RA_OF_ASC_NODE":"95.4873","CENTER_NAME":"EARTH","SEMIMAJOR_AXIS":"6917.905","OBJECT_TYPE":"PAYLOAD","EPOCH":"2022-12-03T15:04:57.865728","MEAN_MOTION_DDOT":"0.0000000000000","MEAN_ELEMENT_THEORY":"SGP4","ELEMENT_SET_NO":"999","MEAN_ANOMALY":"326.0287","EPHEMERIS_TYPE":"0","ARG_OF_PERICENTER":"34.0875"},{"GP_ID":"219479975","NORAD_CAT_ID":"52685","SITE":"AFETR","TLE_LINE1":"1 52685U 22053AF  22337.60636342  .00000476  00000-0  48033-4 0  9994","RCS_SIZE":"LARGE","CLASSIFICATION_TYPE":"U","COUNTRY_CODE":"US","TLE_LINE2":"2 52685  53.2185  95.5847 0002455  43.7303 316.3883 15.08834617 31151","FILE":"3680595","BSTAR":"0.00004803300000","LAUNCH_DATE":"2022-05-18","ECCENTRICITY":"0.00024550","DECAY_DATE":null,"REV_AT_EPOCH":"3115","APOAPSIS":"541.460","PERIAPSIS":"538.063","MEAN_MOTION_DOT":"0.00000476","REF_FRAME":"TEME","PERIOD":"95.438","MEAN_MOTION":"15.08834617","OBJECT_NAME":"STARLINK-4029","SEMIMAJOR_AXIS":"6917.897","CENTER_NAME":"EARTH","INCLINATION":"53.2185","OBJECT_ID":"2022-053AF","TIME_SYSTEM":"UTC","RA_OF_ASC_NODE":"95.5847","MEAN_ELEMENT_THEORY":"SGP4","MEAN_MOTION_DDOT":"0.0000000000000","EPOCH":"2022-12-03T14:33:09.799488","OBJECT_TYPE":"PAYLOAD","MEAN_ANOMALY":"316.3883","ELEMENT_SET_NO":"999","EPHEMERIS_TYPE":"0","ARG_OF_PERICENTER":"43.7303"},{"GP_ID":"219480721","SITE":"AFETR","NORAD_CAT_ID":"52686","TLE_LINE1":"1 52686U 22053AG  22337.61740596 -.00001638  00000-0 -84793-4 0  9999","COUNTRY_CODE":"US","RCS_SIZE":"LARGE","CLASSIFICATION_TYPE":"U","DECAY_DATE":null,"ECCENTRICITY":"0.00021680","TLE_LINE2":"2 52686  53.2181  95.5389 0002168  47.3288 312.7887 15.08841182 31162","BSTAR":"-0.00008479300000","FILE":"3680595","LAUNCH_DATE":"2022-05-18","APOAPSIS":"541.242","REV_AT_EPOCH":"3116","PERIAPSIS":"538.242","MEAN_MOTION_DOT":"-0.00001638","PERIOD":"95.437","REF_FRAME":"TEME","MEAN_MOTION":"15.08841182","OBJECT_NAME":"STARLINK-4005","CENTER_NAME":"EARTH","SEMIMAJOR_AXIS":"6917.877","OBJECT_ID":"2022-053AG","TIME_SYSTEM":"UTC","INCLINATION":"53.2181","RA_OF_ASC_NODE":"95.5389","MEAN_ELEMENT_THEORY":"SGP4","OBJECT_TYPE":"PAYLOAD","EPOCH":"2022-12-03T14:49:03.874944","MEAN_MOTION_DDOT":"0.0000000000000","MEAN_ANOMALY":"312.7887","ELEMENT_SET_NO":"999","EPHEMERIS_TYPE":"0","ARG_OF_PERICENTER":"47.3288"},{"MEAN_ELEMENT_THEORY":"SGP4","OBJECT_TYPE":"PAYLOAD","EPOCH":"2022-12-03T17:38:41.497728","MEAN_MOTION_DDOT":"0.0000000000000","CENTER_NAME":"EARTH","SEMIMAJOR_AXIS":"6918.014","TIME_SYSTEM":"UTC","OBJECT_ID":"2022-053AH","INCLINATION":"53.2197","RA_OF_ASC_NODE":"95.0187","ARG_OF_PERICENTER":"49.7457","EPHEMERIS_TYPE":"0","MEAN_ANOMALY":"310.3778","ELEMENT_SET_NO":"999","COUNTRY_CODE":"US","CLASSIFICATION_TYPE":"U","RCS_SIZE":"LARGE","DECAY_DATE":null,"ECCENTRICITY":"0.00027810","TLE_LINE2":"2 52687  53.2197  95.0187 0002781  49.7457 310.3778 15.08796277 31174","BSTAR":"-0.00026761000000","FILE":"3680595","LAUNCH_DATE":"2022-05-18","APOAPSIS":"541.803","REV_AT_EPOCH":"3117","GP_ID":"219480977","SITE":"AFETR","NORAD_CAT_ID":"52687","TLE_LINE1":"1 52687U 22053AH  22337.73520252 -.00004540  00000-0 -26761-3 0  9993","MEAN_MOTION":"15.08796277","OBJECT_NAME":"STARLINK-3981","PERIAPSIS":"537.955","MEAN_MOTION_DOT":"-0.00004540","PERIOD":"95.440","REF_FRAME":"TEME"},{"EPHEMERIS_TYPE":"0","ARG_OF_PERICENTER":"48.8577","MEAN_ANOMALY":"311.2634","ELEMENT_SET_NO":"999","MEAN_ELEMENT_THEORY":"SGP4","MEAN_MOTION_DDOT":"0.0000000000000","EPOCH":"2022-12-03T14:39:50.462208","OBJECT_TYPE":"PAYLOAD","SEMIMAJOR_AXIS":"6917.892","CENTER_NAME":"EARTH","RA_OF_ASC_NODE":"95.5643","INCLINATION":"53.2197","OBJECT_ID":"2022-053AJ","TIME_SYSTEM":"UTC","MEAN_MOTION":"15.08836121","OBJECT_NAME":"STARLINK-4032","MEAN_MOTION_DOT":"0.00000228","PERIAPSIS":"538.001","REF_FRAME":"TEME","PERIOD":"95.438","RCS_SIZE":"LARGE","CLASSIFICATION_TYPE":"U","COUNTRY_CODE":"US","REV_AT_EPOCH":"3115","APOAPSIS":"541.513","TLE_LINE2":"2 52688  53.2197  95.5643 0002538  48.8577 311.2634 15.08836121 31152","BSTAR":"0.00003245000000","FILE":"3680595","LAUNCH_DATE":"2022-05-18","DECAY_DATE":null,"ECCENTRICITY":"0.00025380","GP_ID":"219481223","TLE_LINE1":"1 52688U 22053AJ  22337.61100072  .00000228  00000-0  32450-4 0  9995","NORAD_CAT_ID":"52688","SITE":"AFETR"}];
